{"type": "FeatureCollection", "features": [ {"type": "Feature", "properties": {"norad_id": 34014, "name": "COSMOS 2251 DEB", "group": "cosmos-2251-debris", "lat": -73.6816633365603, "lon": -176.17452073148334, "alt_km": 682.4440823807536, "timestamp": "2025-12-10T05:46:14.220088+00:00", "meta": {"OBJECT_NAME": "COSMOS 2251 DEB", "OBJECT_ID": "1993-036GZ", "EPOCH": "2025-12-09T07:55:50.935296", "MEAN_MOTION": 14.73067821, "ECCENTRICITY": 0.0036911, "INCLINATION": 74.0175, "RA_OF_ASC_NODE": 287.3752, "ARG_OF_PERICENTER": 67.9586, "MEAN_ANOMALY": 55.147, "EPHEMERIS_TYPE": 0, "CLASSIFICATION_TYPE": "U", "NORAD_CAT_ID": 34014, "ELEMENT_SET_NO": 999, "REV_AT_EPOCH": 89253, "BSTAR": 0.0014897, "MEAN_MOTION_DOT": 9.669e-05, "MEAN_MOTION_DDOT": 0}, "tle": {"line1": "1 34014U 93036GZ  25343.33045064  .00009669  00000+0  14897-2 0  9995", "line2": "2 34014  74.0175 287.3752 0036911  67.9586  55.1470 14.73067821892531"}}, "geometry": {"type": "Point", "coordinates": [-176.17452073148334, -73.6816633365603]}}, {"type": "Feature", "properties": {"norad_id": 34015, "name": "COSMOS 2251 DEB", "group": "cosmos-2251-debris", "lat": 39.20795907185617, "lon": -29.317416305661343, "alt_km": 697.1911996644722, "timestamp": "2025-12-10T05:46:14.220097+00:00", "meta": {"OBJECT_NAME": "COSMOS 2251 DEB", "OBJECT_ID": "1993-036HA", "EPOCH": "2025-12-09T21:13:16.155264", "MEAN_MOTION": 14.60187383, "ECCENTRICITY": 0.0021057, "INCLINATION": 74.0236, "RA_OF_ASC_NODE": 164.879, "ARG_OF_PERICENTER": 262.0693, "MEAN_ANOMALY": 165.1297, "EPHEMERIS_TYPE": 0, "CLASSIFICATION_TYPE": "U", "NORAD_CAT_ID": 34015, "ELEMENT_SET_NO": 999, "REV_AT_EPOCH": 88489, "BSTAR": 0.0022237, "MEAN_MOTION_DOT": 0.00010735, "MEAN_MOTION_DDOT": 0}, "tle": {"line1": "1 34015U 93036HA  25343.88421476  .00010735  00000+0  22237-2 0  9994", "line2": "2 34015  74.0236 164.8790 0021057 262.0693 165.1297 14.60187383884894"}}, "geometry": {"type": "Point", "coordinates": [-29.317416305661343, 39.20795907185617]}}, {"type": "Feature", "properties": {"norad_id": 34018, "name": "COSMOS 2251 DEB", "group": "cosmos-2251-debris", "lat": -73.22429271561936, "lon": 22.697269431328046, "alt_km": 1117.6889490091698, "timestamp": "2025-12-10T05:46:14.220107+00:00", "meta": {"OBJECT_NAME": "COSMOS 2251 DEB", "OBJECT_ID": "1993-036HD", "EPOCH": "2025-12-09T18:47:47.056128", "MEAN_MOTION": 13.81065911, "ECCENTRICITY": 0.0263929, "INCLINATION": 73.8774, "RA_OF_ASC_NODE": 97.1056, "ARG_OF_PERICENTER": 133.5502, "MEAN_ANOMALY": 26.6741, "EPHEMERIS_TYPE": 0, "CLASSIFICATION_TYPE": "U", "NORAD_CAT_ID": 34018, "ELEMENT_SET_NO": 999, "REV_AT_EPOCH": 84616, "BSTAR": 0.00091424, "MEAN_MOTION_DOT": 1.237e-05, "MEAN_MOTION_DDOT": 0}, "tle": {"line1": "1 34018U 93036HD  25343.78318352  .00001237  00000+0  91424-3 0  9996", "line2": "2 34018  73.8774  97.1056 0263929 133.5502  26.6741 13.81065911846168"}}, "geometry": {"type": "Point", "coordinates": [22.697269431328046, -73.22429271561936]}}, {"type": "Feature", "properties": {"norad_id": 34019, "name": "COSMOS 2251 DEB", "group": "cosmos-2251-debris", "lat": -69.30072202650513, "lon": 5.728671003488488, "alt_km": 754.4694561863053, "timestamp": "2025-12-10T05:46:14.220117+00:00", "meta": {"OBJECT_NAME": "COSMOS 2251 DEB", "OBJECT_ID": "1993-036HE", "EPOCH": "2025-12-09T15:48:47.143008", "MEAN_MOTION": 14.33914513, "ECCENTRICITY": 0.0062715, "INCLINATION": 73.9548, "RA_OF_ASC_NODE": 56.4057, "ARG_OF_PERICENTER": 238.0731, "MEAN_ANOMALY": 283.787, "EPHEMERIS_TYPE": 0, "CLASSIFICATION_TYPE": "U", "NORAD_CAT_ID": 34019, "ELEMENT_SET_NO": 999, "REV_AT_EPOCH": 87476, "BSTAR": 0.0015111, "MEAN_MOTION_DOT": 4.281e-05, "MEAN_MOTION_DDOT": 0}, "tle": {"line1": "1 34019U 93036HE  25343.65887897  .00004281  00000+0  15111-2 0  9998", "line2": "2 34019  73.9548  56.4057 0062715 238.0731 283.7870 14.33914513874768"}}, "geometry": {"type": "Point", "coordinates": [5.728671003488488, -69.30072202650513]}}, {"type": "Feature", "properties": {"norad_id": 34021, "name": "COSMOS 2251 DEB", "group": "cosmos-2251-debris", "lat": -54.56524873907656, "lon": -21.75766101149724, "alt_km": 721.3161664983309, "timestamp": "2025-12-10T05:46:14.220127+00:00", "meta": {"OBJECT_NAME": "COSMOS 2251 DEB", "OBJECT_ID": "1993-036HG", "EPOCH": "2025-12-09T21:05:37.926816", "MEAN_MOTION": 14.4993166, "ECCENTRICITY": 0.0020861, "INCLINATION": 74.0357, "RA_OF_ASC_NODE": 135.1996, "ARG_OF_PERICENTER": 279.5274, "MEAN_ANOMALY": 232.1664, "EPHEMERIS_TYPE": 0, "CLASSIFICATION_TYPE": "U", "NORAD_CAT_ID": 34021, "ELEMENT_SET_NO": 999, "REV_AT_EPOCH": 88588, "BSTAR": 0.0008602, "MEAN_MOTION_DOT": 3.309e-05, "MEAN_MOTION_DDOT": 0}, "tle": {"line1": "1 34021U 93036HG  25343.87891119  .00003309  00000+0  86020-3 0  9995", "line2": "2 34021  74.0357 135.1996 0020861 279.5274 232.1664 14.49931660885889"}}, "geometry": {"type": "Point", "coordinates": [-21.75766101149724, -54.56524873907656]}}, {"type": "Feature", "properties": {"norad_id": 34022, "name": "COSMOS 2251 DEB", "group": "cosmos-2251-debris", "lat": 25.746911856179388, "lon": 87.47461208803794, "alt_km": 776.7334388937961, "timestamp": "2025-12-10T05:46:14.220137+00:00", "meta": {"OBJECT_NAME": "COSMOS 2251 DEB", "OBJECT_ID": "1993-036HH", "EPOCH": "2025-12-09T19:11:31.087968", "MEAN_MOTION": 14.38956843, "ECCENTRICITY": 0.0022618, "INCLINATION": 74.0542, "RA_OF_ASC_NODE": 276.212, "ARG_OF_PERICENTER": 341.6829, "MEAN_ANOMALY": 48.913, "EPHEMERIS_TYPE": 0, "CLASSIFICATION_TYPE": "U", "NORAD_CAT_ID": 34022, "ELEMENT_SET_NO": 999, "REV_AT_EPOCH": 88153, "BSTAR": 0.00044516, "MEAN_MOTION_DOT": 1.351e-05, "MEAN_MOTION_DDOT": 0}, "tle": {"line1": "1 34022U 93036HH  25343.79966537  .00001351  00000+0  44516-3 0  9993", "line2": "2 34022  74.0542 276.2120 0022618 341.6829  48.9130 14.38956843881538"}}, "geometry": {"type": "Point", "coordinates": [87.47461208803794, 25.746911856179388]}}, {"type": "Feature", "properties": {"norad_id": 34023, "name": "COSMOS 2251 DEB", "group": "cosmos-2251-debris", "lat": 54.77677355883679, "lon": -79.69552977367817, "alt_km": 745.7246769738822, "timestamp": "2025-12-10T05:46:14.220147+00:00", "meta": {"OBJECT_NAME": "COSMOS 2251 DEB", "OBJECT_ID": "1993-036HJ", "EPOCH": "2025-12-09T17:58:14.382048", "MEAN_MOTION": 14.40551699, "ECCENTRICITY": 0.0018377, "INCLINATION": 74.0257, "RA_OF_ASC_NODE": 257.2781, "ARG_OF_PERICENTER": 353.4618, "MEAN_ANOMALY": 35.8485, "EPHEMERIS_TYPE": 0, "CLASSIFICATION_TYPE": "U", "NORAD_CAT_ID": 34023, "ELEMENT_SET_NO": 999, "REV_AT_EPOCH": 88171, "BSTAR": 0.00061747, "MEAN_MOTION_DOT": 1.944e-05, "MEAN_MOTION_DDOT": 0}, "tle": {"line1": "1 34023U 93036HJ  25343.74877757  .00001944  00000+0  61747-3 0  9997", "line2": "2 34023  74.0257 257.2781 0018377 353.4618  35.8485 14.40551699881719"}}, "geometry": {"type": "Point", "coordinates": [-79.69552977367817, 54.77677355883679]}}, {"type": "Feature", "properties": {"norad_id": 34024, "name": "COSMOS 2251 DEB", "group": "cosmos-2251-debris", "lat": 61.2586579445901, "lon": 109.13535284460174, "alt_km": 770.5919146818705, "timestamp": "2025-12-10T05:46:14.220157+00:00", "meta": {"OBJECT_NAME": "COSMOS 2251 DEB", "OBJECT_ID": "1993-036HK", "EPOCH": "2025-12-09T16:41:13.430976", "MEAN_MOTION": 14.35391298, "ECCENTRICITY": 0.00209, "INCLINATION": 74.0463, "RA_OF_ASC_NODE": 321.5736, "ARG_OF_PERICENTER": 13.0663, "MEAN_ANOMALY": 165.0073, "EPHEMERIS_TYPE": 0, "CLASSIFICATION_TYPE": "U", "NORAD_CAT_ID": 34024, "ELEMENT_SET_NO": 999, "REV_AT_EPOCH": 87980, "BSTAR": 0.00034993, "MEAN_MOTION_DOT": 9.81e-06, "MEAN_MOTION_DDOT": 0}, "tle": {"line1": "1 34024U 93036HK  25343.69529434  .00000981  00000+0  34993-3 0  9991", "line2": "2 34024  74.0463 321.5736 0020900  13.0663 165.0073 14.35391298879805"}}, "geometry": {"type": "Point", "coordinates": [109.13535284460174, 61.2586579445901]}}, {"type": "Feature", "properties": {"norad_id": 34026, "name": "COSMOS 2251 DEB", "group": "cosmos-2251-debris", "lat": -73.29976615118493, "lon": -94.718290924389, "alt_km": 895.1215836256561, "timestamp": "2025-12-10T05:46:14.220167+00:00", "meta": {"OBJECT_NAME": "COSMOS 2251 DEB", "OBJECT_ID": "1993-036HM", "EPOCH": "2025-12-09T18:45:39.985056", "MEAN_MOTION": 13.65302414, "ECCENTRICITY": 0.0350795, "INCLINATION": 73.768, "RA_OF_ASC_NODE": 342.2045, "ARG_OF_PERICENTER": 212.6614, "MEAN_ANOMALY": 323.9146, "EPHEMERIS_TYPE": 0, "CLASSIFICATION_TYPE": "U", "NORAD_CAT_ID": 34026, "ELEMENT_SET_NO": 999, "REV_AT_EPOCH": 83491, "BSTAR": 0.0013482, "MEAN_MOTION_DOT": 1.645e-05, "MEAN_MOTION_DDOT": 0}, "tle": {"line1": "1 34026U 93036HM  25343.78171279  .00001645  00000+0  13482-2 0  9990", "line2": "2 34026  73.7680 342.2045 0350795 212.6614 323.9146 13.65302414834911"}}, "geometry": {"type": "Point", "coordinates": [-94.718290924389, -73.29976615118493]}}, {"type": "Feature", "properties": {"norad_id": 34028, "name": "COSMOS 2251 DEB", "group": "cosmos-2251-debris", "lat": -32.22271110379385, "lon": -19.416829364381584, "alt_km": 1579.1730571321114, "timestamp": "2025-12-10T05:46:14.220178+00:00", "meta": {"OBJECT_NAME": "COSMOS 2251 DEB", "OBJECT_ID": "1993-036HP", "EPOCH": "2025-12-09T10:32:50.848224", "MEAN_MOTION": 13.20619741, "ECCENTRICITY": 0.05438084, "INCLINATION": 73.8834, "RA_OF_ASC_NODE": 352.3102, "ARG_OF_PERICENTER": 130.7206, "MEAN_ANOMALY": 350.9452, "EPHEMERIS_TYPE": 0, "CLASSIFICATION_TYPE": "U", "NORAD_CAT_ID": 34028, "ELEMENT_SET_NO": 999, "REV_AT_EPOCH": 80964, "BSTAR": 0.00046558148, "MEAN_MOTION_DOT": 3.94e-06, "MEAN_MOTION_DDOT": 0}, "tle": {"line1": "1 34028U 93036HP  25343.43947741  .00000394  00000+0  46558-3 0  9990", "line2": "2 34028  73.8834 352.3102 0543808 130.7206 350.9452 13.20619741809644"}}, "geometry": {"type": "Point", "coordinates": [-19.416829364381584, -32.22271110379385]}}]}